OBJECT_NAME,OBJECT_ID,EPOCH,MEAN_MOTION,ECCENTRICITY,INCLINATION,RA_OF_ASC_NODE,ARG_OF_PERICENTER,MEAN_ANOMALY,EPHEMERIS_TYPE,CLASSIFICATION_TYPE,NORAD_CAT_ID,ELEMENT_SET_NO,REV_AT_EPOCH,BSTAR,MEAN_MOTION_DOT,MEAN_MOTION_DDOT
INTELSAT 35E (IS-35E),2017-041A,2026-06-14T11:13:54.337728,1.00268263,.0001544,0.0257,11.0420,69.7715,315.9399,0,U,42818,999,3278,0,0,0
COSMOS 2520,2017-046A,2026-06-14T11:36:37.162080,1.00270521,.0001105,0.0479,86.1632,42.3522,353.4222,0,U,42907,999,3237,0,.144E-5,0
TDRS 13,2017-047A,2026-06-14T09:37:43.608288,1.00271389,.0014413,3.4510,2.6653,106.3254,286.7058,0,U,42915,999,3232,0,-.94E-6,0
QZS-3 (MICHIBIKI-3),2017-048A,2026-06-14T10:54:27.962784,1.00264224,.0002422,0.0261,158.7309,293.7784,100.8061,0,U,42917,999,3223,0,0,0
AMAZONAS 5,2017-053A,2026-06-14T11:06:17.567712,1.00269230,.0002049,0.0336,323.1316,66.6486,338.5575,0,U,42934,999,3201,0,-.275E-5,0
ASIASAT 9,2017-057A,2026-06-13T20:28:38.552736,1.00263846,.00024985,0.0410,45.6399,28.1238,257.7082,0,U,42942,999,3182,0,0,0
INTELSAT 37E (IS-37E),2017-059A,2026-06-14T09:35:36.310848,1.00273252,.000241,0.0252,13.6852,95.6197,279.3078,0,U,42950,999,3203,0,0,0
BSAT-4A,2017-059B,2026-06-14T11:55:09.478272,1.00269434,.0003877,0.0438,27.1808,40.3631,123.8658,0,U,42951,999,3177,0,-.343E-5,0
QZS-4 (MICHIBIKI-4),2017-062A,2026-06-14T08:35:20.736960,1.00251032,.0745249,40.1096,343.5183,271.7117,273.4729,0,U,42965,999,3177,0,-.335E-5,0
SES-11 (ECHOSTAR 105),2017-063A,2026-06-14T11:45:38.585088,1.00270641,.0002717,0.0204,324.5612,103.4616,266.2345,0,U,42967,999,3169,0,-.82E-6,0
KOREASAT 5A,2017-067A,2026-06-14T12:09:39.819168,1.00272057,.0000555,0.0116,359.6326,91.3706,107.3697,0,U,42984,999,3150,0,-.351E-5,0
ALCOMSAT 1,2017-078A,2026-06-14T11:16:39.074880,1.00269832,.0002234,0.0391,265.9499,166.4491,334.7415,0,U,43039,999,3126,0,-.179E-5,0
SBIRS GEO-3 (USA 282),2018-009A,2026-06-14T04:08:38.527296,1.00271656,.00018077,2.1820,11.9533,64.9724,88.3135,0,U,43162,999,3081,0,.135E-5,0
AL YAH 3,2018-012A,2026-06-14T09:35:21.336000,1.00270099,.0003855,1.5446,83.1397,359.3349,303.9575,0,U,43174,999,3081,0,-.149E-5,0
SES-14,2018-012B,2026-06-14T11:10:09.696864,1.00271291,.0000793,0.0170,16.8056,65.4681,300.5329,0,U,43175,999,699,0,-.271E-5,0
GOES 17,2018-022A,2026-06-14T10:58:10.847136,1.00270105,.0000403,0.9302,85.7560,33.9043,218.1437,0,U,43226,999,3039,0,-.175E-5,0
HISPASAT 30W-6,2018-023A,2026-06-14T09:32:29.111424,1.00270143,.0005641,0.0442,39.2609,30.5525,306.0070,0,U,43228,999,3037,0,-.209E-5,0
SUPERBIRD-B3,2018-033A,2026-06-14T12:09:58.218048,1.00272878,.0000927,0.0139,357.4674,68.9479,180.8879,0,U,43271,999,3003,0,-.85E-6,0
HYLAS 4,2018-033B,2026-06-13T18:07:34.057920,1.00269963,.00008583,0.0147,30.1917,50.5126,59.7627,0,U,43272,999,3003,0,-.223E-5,0
IRNSS-1I,2018-035A,2026-06-13T20:15:11.231136,1.00271450,.00179079,28.7469,74.2484,181.4936,5.0540,0,U,43286,999,3004,0,.68E-6,0
USA 283,2018-036A,2026-06-12T17:15:31.472064,1.00273175,.0000436,0.0199,335.2360,187.5113,131.2828,0,U,43339,999,2524,0,0,0
COSMOS 2526,2018-037A,2026-06-14T00:01:42.561120,1.00269012,.00006461,0.0250,38.3151,148.9680,203.5230,0,U,43432,999,2992,0,-.335E-5,0
APSTAR-6C,2018-041A,2026-06-14T12:31:38.755776,1.00269999,.0001021,0.0237,359.0542,341.9838,243.7061,0,U,43450,999,2978,0,-.311E-5,0
BANGABANDHUSAT-1,2018-044A,2026-06-14T08:32:21.024960,1.00271215,.0001608,0.0148,40.4187,38.9277,70.5013,0,U,43463,999,2968,0,-.355E-5,0
SES-12,2018-049A,2026-06-14T10:08:10.688352,1.00271910,.000098,0.0184,23.6022,272.9931,213.1809,0,U,43488,999,2939,0,-.262E-5,0
FENGYUN 2H,2018-050A,2026-06-14T11:46:21.227808,1.00269837,.0001937,3.0230,79.1062,136.4326,303.2618,0,U,43491,999,2941,0,-.125E-5,0
BEIDOU-2 IGSO-7,2018-057A,2026-06-14T10:12:17.793216,1.00251916,.0104977,55.1941,163.0822,237.9873,124.9006,0,U,43539,999,2910,0,-.2E-7,0
TELSTAR 19V,2018-059A,2026-06-13T17:59:04.871616,1.00269537,.00022825,0.0197,160.5434,303.5237,4.7595,0,U,43562,999,2911,0,-.269E-5,0
TELKOM 4 (MERAH PUTIH),2018-064A,2026-06-14T11:54:32.036832,1.00270539,.0001223,0.0156,56.5231,57.0874,75.8168,0,U,43587,999,2885,0,-.337E-5,0
TELSTAR 18V,2018-069A,2026-06-14T11:03:20.757024,1.00269677,.0001622,0.0117,304.4592,135.3137,126.8136,0,U,43611,999,2861,0,-.287E-5,0
AZERSPACE 2 (IS-38),2018-074A,2026-06-14T11:36:37.162080,1.00269365,.0001161,0.0012,19.4465,61.3374,41.2693,0,U,43632,999,2842,0,.144E-5,0
HORIZONS-3E,2018-074B,2026-06-14T12:53:43.324800,1.00270031,.0000931,0.0192,164.0975,102.9448,358.2207,0,U,43633,999,2831,0,-.24E-6,0
