INTELSAT 35E (IS-35E)   
1 42818U 17041A   26165.46799002  .00000000  00000+0  00000+0 0  9991
2 42818   0.0257  11.0420 0001544  69.7715 315.9399  1.00268263 32783
COSMOS 2520             
1 42907U 17046A   26165.48376345  .00000144  00000+0  00000+0 0  9997
2 42907   0.0479  86.1632 0001105  42.3522 353.4222  1.00270521 32379
TDRS 13                 
1 42915U 17047A   26165.40119917 -.00000094  00000+0  00000+0 0  9994
2 42915   3.4510   2.6653 0014413 106.3254 286.7058  1.00271389 32329
QZS-3 (MICHIBIKI-3)     
1 42917U 17048A   26165.45449031  .00000000  00000+0  00000+0 0  9991
2 42917   0.0261 158.7309 0002422 293.7784 100.8061  1.00264224 32234
AMAZONAS 5              
1 42934U 17053A   26165.46270333 -.00000275  00000+0  00000+0 0  9999
2 42934   0.0336 323.1316 0002049  66.6486 338.5575  1.00269230 32011
ASIASAT 9               
1 42942U 17057A   26164.85322399  .00000000  00000+0  00000+0 0  9999
2 42942   0.0410  45.6399 0002498  28.1238 257.7082  1.00263846 31826
INTELSAT 37E (IS-37E)   
1 42950U 17059A   26165.39972582  .00000000  00000+0  00000+0 0  9995
2 42950   0.0252  13.6852 0002410  95.6197 279.3078  1.00273252 32036
BSAT-4A                 
1 42951U 17059B   26165.49663748 -.00000343  00000+0  00000+0 0  9999
2 42951   0.0438  27.1808 0003877  40.3631 123.8658  1.00269434 31776
QZS-4 (MICHIBIKI-4)     
1 42965U 17062A   26165.35787890 -.00000335  00000+0  00000+0 0  9999
2 42965  40.1096 343.5183 0745249 271.7117 273.4729  1.00251032 31778
SES-11 (ECHOSTAR 105)   
1 42967U 17063A   26165.49002992 -.00000082  00000+0  00000+0 0  9999
2 42967   0.0204 324.5612 0002717 103.4616 266.2345  1.00270641 31695
KOREASAT 5A             
1 42984U 17067A   26165.50671087 -.00000351  00000+0  00000+0 0  9990
2 42984   0.0116 359.6326 0000555  91.3706 107.3697  1.00272057 31508
ALCOMSAT 1              
1 43039U 17078A   26165.46989670 -.00000179  00000+0  00000+0 0  9997
2 43039   0.0391 265.9499 0002234 166.4491 334.7415  1.00269832 31260
SBIRS GEO-3 (USA 282)   
1 43162U 18009A   26165.17266814  .00000135  00000+0  00000+0 0  9996
2 43162   2.1820  11.9533 0001807  64.9724  88.3135  1.00271656 30819
AL YAH 3                
1 43174U 18012A   26165.39955250 -.00000149  00000+0  00000+0 0  9992
2 43174   1.5446  83.1397 0003855 359.3349 303.9575  1.00270099 30811
SES-14                  
1 43175U 18012B   26165.46539001 -.00000271  00000+0  00000+0 0  9999
2 43175   0.0170  16.8056 0000793  65.4681 300.5329  1.00271291  6994
GOES 17                 
1 43226U 18022A   26165.45706999 -.00000175  00000+0  00000+0 0  9991
2 43226   0.9302  85.7560 0000403  33.9043 218.1437  1.00270105 30390
HISPASAT 30W-6          
1 43228U 18023A   26165.39755916 -.00000209  00000+0  00000+0 0  9998
2 43228   0.0442  39.2609 0005641  30.5525 306.0070  1.00270143 30373
SUPERBIRD-B3            
1 43271U 18033A   26165.50692382 -.00000085  00000+0  00000+0 0  9999
2 43271   0.0139 357.4674 0000927  68.9479 180.8879  1.00272878 30031
HYLAS 4                 
1 43272U 18033B   26164.75525530 -.00000223  00000+0  00000+0 0  9990
2 43272   0.0147  30.1917 0000858  50.5126  59.7627  1.00269963 30031
IRNSS-1I                
1 43286U 18035A   26164.84387999  .00000068  00000+0  00000+0 0  9998
2 43286  28.7469  74.2484 0017907 181.4936   5.0540  1.00271450 30047
USA 283                 
1 43339U 18036A   26163.71911426  .00000000  00000+0  00000+0 0  9997
2 43339   0.0199 335.2360 0000436 187.5113 131.2828  1.00273175 25248
COSMOS 2526             
1 43432U 18037A   26165.00118705 -.00000335  00000+0  00000+0 0  9997
2 43432   0.0250  38.3151 0000646 148.9680 203.5230  1.00269012 29926
APSTAR-6C               
1 43450U 18041A   26165.52197634 -.00000311  00000+0  00000+0 0  9991
2 43450   0.0237 359.0542 0001021 341.9838 243.7061  1.00269999 29782
BANGABANDHUSAT-1        
1 43463U 18044A   26165.35579890 -.00000355  00000+0  00000+0 0  9995
2 43463   0.0148  40.4187 0001608  38.9277  70.5013  1.00271215 29680
SES-12                  
1 43488U 18049A   26165.42234593 -.00000262  00000+0  00000+0 0  9990
2 43488   0.0184  23.6022 0000980 272.9931 213.1809  1.00271910 29395
FENGYUN 2H              
1 43491U 18050A   26165.49052347 -.00000125  00000+0  00000+0 0  9996
2 43491   3.0230  79.1062 0001937 136.4326 303.2618  1.00269837 29416
BEIDOU-2 IGSO-7         
1 43539U 18057A   26165.42520594 -.00000002  00000+0  00000+0 0  9997
2 43539  55.1941 163.0822 0104977 237.9873 124.9006  1.00251916 29109
TELSTAR 19V             
1 43562U 18059A   26164.74936194 -.00000269  00000+0  00000+0 0  9991
2 43562   0.0197 160.5434 0002282 303.5237   4.7595  1.00269537 29115
TELKOM 4 (MERAH PUTIH)  
1 43587U 18064A   26165.49620413 -.00000337  00000+0  00000+0 0  9997
2 43587   0.0156  56.5231 0001223  57.0874  75.8168  1.00270539 28857
TELSTAR 18V             
1 43611U 18069A   26165.46065691 -.00000287  00000+0  00000+0 0  9992
2 43611   0.0117 304.4592 0001622 135.3137 126.8136  1.00269677 28619
AZERSPACE 2 (IS-38)     
1 43632U 18074A   26165.48376345  .00000144  00000+0  00000+0 0  9995
2 43632   0.0012  19.4465 0001161  61.3374  41.2693  1.00269365 28428
HORIZONS-3E             
1 43633U 18074B   26165.53730700 -.00000024  00000+0  00000+0 0  9999
2 43633   0.0192 164.0975 0000931 102.9448 358.2207  1.00270031 28311
